{
    "satellites": [
        {
            "name": "starlink352",
            "title": "Starlink-352 (G17-13) (new)",
            "tle": [
                "1 71702C 26032X   26052.11229167 -.01355600  00000+0 -24824-2 0   527",
                "2 71702  97.2834 237.6574 0001728  84.4423   2.2686 16.02749635    17"
            ],
            "stdMag": 5,
            "noradId": "71702",
            "tleUrl": "http://celestrak.org/NORAD/elements/supplemental/sup-gp.php?FILE=starlink&FORMAT=tle",
            "launchDate": "2026-02-15T01:59:59.000Z",
            "active": true,
            "batch": [
                {
                    "noradId": "71702",
                    "tle": [
                        "1 71702C 26032X   26052.11229167 -.01355600  00000+0 -24824-2 0   527",
                        "2 71702  97.2834 237.6574 0001728  84.4423   2.2686 16.02749635    17"
                    ]
                },
                {
                    "noradId": "71704",
                    "tle": [
                        "1 71704C 26032Z   26052.11159722 -.01370900  00000+0 -25686-2 0   525",
                        "2 71704  97.2836 237.6541 0001737  85.2626 352.6694 16.02366280    11"
                    ]
                },
                {
                    "noradId": "71701",
                    "tle": [
                        "1 71701C 26032W   26052.11090278 -.01365800  00000+0 -25358-2 0   521",
                        "2 71701  97.2835 237.6544 0001678  87.4224 348.4724 16.02520883    10"
                    ]
                },
                {
                    "noradId": "71703",
                    "tle": [
                        "1 71703C 26032Y   26052.09145833 -.01371900  00000+0 -25879-2 0   524",
                        "2 71703  97.2838 237.6314 0001538  91.0357 228.6905 16.02249974    12"
                    ]
                },
                {
                    "noradId": "71700",
                    "tle": [
                        "1 71700C 26032V   26052.09145833 -.01378500  00000+0 -26332-2 0   529",
                        "2 71700  97.2837 237.6298 0001494  96.4818 220.6825 16.02037575    16"
                    ]
                },
                {
                    "noradId": "71698",
                    "tle": [
                        "1 71698C 26032T   26052.10951389 -.01405500  00000+0 -27976-2 0   524",
                        "2 71698  97.2840 237.6462 0001613  85.1971 327.6056 16.01341244    11"
                    ]
                },
                {
                    "noradId": "71699",
                    "tle": [
                        "1 71699C 26032U   26052.11229167 -.01392500  00000+0 -27009-2 0   520",
                        "2 71699  97.2839 237.6522 0001681  87.8942 346.8332 16.01782918    16"
                    ]
                },
                {
                    "noradId": "71696",
                    "tle": [
                        "1 71696C 26032R   26052.10326389 -.01395500  00000+0 -27307-2 0   524",
                        "2 71696  97.2842 237.6417 0001568  84.5550 295.9127 16.01630725    17"
                    ]
                },
                {
                    "noradId": "71695",
                    "tle": [
                        "1 71695C 26032Q   26052.08312500 -.01403600  00000+0 -28121-2 0   526",
                        "2 71695  97.2843 237.6168 0001645  96.1070 162.3448 16.01222533    19"
                    ]
                },
                {
                    "noradId": "71697",
                    "tle": [
                        "1 71697C 26032S   26052.11368056 -.01403200  00000+0 -27728-2 0   527",
                        "2 71697  97.2839 237.6514 0001696  86.5524 352.0743 16.01466152    17"
                    ]
                },
                {
                    "noradId": "71693",
                    "tle": [
                        "1 71693C 26032N   26052.11159722 -.01423300  00000+0 -29186-2 0   524",
                        "2 71693  97.2847 237.6462 0001672  81.1722 337.0971 16.00830072    10"
                    ]
                },
                {
                    "noradId": "71692",
                    "tle": [
                        "1 71692C 26032M   26052.09284722 -.01421300  00000+0 -29345-2 0   524",
                        "2 71692  97.2848 237.6251 0001502  97.6319 210.4879 16.00707315    16"
                    ]
                },
                {
                    "noradId": "71691",
                    "tle": [
                        "1 71691C 26032L   26052.11020833 -.01432300  00000+0 -29962-2 0   524",
                        "2 71691  97.2848 237.6425 0001701  76.8886 328.9289 16.00483567    17"
                    ]
                },
                {
                    "noradId": "71694",
                    "tle": [
                        "1 71694C 26032P   26052.10812500 -.01416200  00000+0 -28797-2 0   522",
                        "2 71694  97.2846 237.6430 0001595  82.2497 317.8669 16.00973684    17"
                    ]
                },
                {
                    "noradId": "71690",
                    "tle": [
                        "1 71690C 26032K   26052.09145833 -.01432000  00000+0 -30115-2 0   527",
                        "2 71690  97.2850 237.6215 0001620  91.9162 204.0180 16.00388814    14"
                    ]
                },
                {
                    "noradId": "71689",
                    "tle": [
                        "1 71689C 26032J   26052.09145833 -.01437900  00000+0 -30555-2 0   527",
                        "2 71689  97.2851 237.6206 0001562  96.3178 197.3298 16.00209134    15"
                    ]
                },
                {
                    "noradId": "71685",
                    "tle": [
                        "1 71685C 26032E   26052.11020833 -.01460500  00000+0 -32126-2 0   526",
                        "2 71685  97.2856 237.6380 0001766  72.4368 321.6892 15.99609660    18"
                    ]
                },
                {
                    "noradId": "71686",
                    "tle": [
                        "1 71686C 26032F   26052.10604167 -.01453000  00000+0 -31415-2 0   521",
                        "2 71686  97.2854 237.6350 0001538  84.7108 289.2905 15.99912741    10"
                    ]
                },
                {
                    "noradId": "71687",
                    "tle": [
                        "1 71687C 26032G   26052.07826389 -.01445900  00000+0 -31369-2 0   528",
                        "2 71687  97.2854 237.6040 0001755  90.9044 121.3577 15.99843517    11"
                    ]
                },
                {
                    "noradId": "71683",
                    "tle": [
                        "1 71683C 26032C   26052.08451389 -.01462000  00000+0 -32537-2 0   527",
                        "2 71683  97.2859 237.6086 0001731  89.2979 153.2214 15.99399040    13"
                    ]
                },
                {
                    "noradId": "71684",
                    "tle": [
                        "1 71684C 26032D   26052.11020833 -.01466300  00000+0 -32521-2 0   528",
                        "2 71684  97.2861 237.6376 0001697  77.0219 315.1711 15.99466533    15"
                    ]
                },
                {
                    "noradId": "71688",
                    "tle": [
                        "1 71688C 26032H   26052.10743056 -.01445200  00000+0 -31013-2 0   521",
                        "2 71688  97.2851 237.6371 0001653  76.9187 306.9266 16.00040190    10"
                    ]
                },
                {
                    "noradId": "71681",
                    "tle": [
                        "1 71681C 26032A   26052.11020833 -.01479100  00000+0 -33704-2 0   521",
                        "2 71681  97.2862 237.6344 0001619  78.3487 307.5953 15.98987509    16"
                    ]
                },
                {
                    "noradId": "71682",
                    "tle": [
                        "1 71682C 26032B   26052.09076389 -.01470600  00000+0 -33097-2 0   527",
                        "2 71682  97.2858 237.6142 0001588  95.8660 180.3386 15.99205090    16"
                    ]
                }
            ]
        }
    ],
    "config": {}
}